{
  "type": "FeatureCollection",
  "features": [
    {
      "type": "Feature",
      "properties": {
        "norad_id": 58701,
        "name": "TIANMU-1 16",
        "group": "weather",
        "lat": -24.380931346531074,
        "lon": -17.63113927588995,
        "alt_km": 498.8105447627695,
        "timestamp": "2025-12-10T21:43:21.729833+00:00",
        "meta_object_name": "TIANMU-1 16",
        "meta_object_id": "2024-004B",
        "meta_epoch": "2025-12-10T14:31:34.800960",
        "meta_mean_motion": 15.243859,
        "meta_eccentricity": 0.00045778,
        "meta_inclination": 97.4571,
        "meta_ra_of_asc_node": 165.4738,
        "meta_arg_of_pericenter": 305.8403,
        "meta_mean_anomaly": 54.2409,
        "meta_ephemeris_type": 0,
        "meta_classification_type": "U",
        "meta_norad_cat_id": 58701,
        "meta_element_set_no": 999,
        "meta_rev_at_epoch": 10702,
        "meta_bstar": 0.00042607104,
        "meta_mean_motion_dot": 0.00010375,
        "meta_mean_motion_ddot": 0,
        "tle_line1": "1 58701U 24004B   25344.60526390  .00010375  00000+0  42607-3 0  9997",
        "tle_line2": "2 58701  97.4571 165.4738 0004577 305.8403  54.2409 15.24385900107027"
      },
      "geometry": {
        "type": "Point",
        "coordinates": [
          -17.63113927588995,
          -24.380931346531074
        ]
      }
    },
    {
      "type": "Feature",
      "properties": {
        "norad_id": 58702,
        "name": "TIANMU-1 17",
        "group": "weather",
        "lat": -69.93396261673507,
        "lon": -172.79529223147057,
        "alt_km": 497.32295390133095,
        "timestamp": "2025-12-10T21:43:21.729843+00:00",
        "meta_object_name": "TIANMU-1 17",
        "meta_object_id": "2024-004C",
        "meta_epoch": "2025-12-10T15:44:00.561120",
        "meta_mean_motion": 15.24431785,
        "meta_eccentricity": 0.00037998,
        "meta_inclination": 97.4605,
        "meta_ra_of_asc_node": 165.9328,
        "meta_arg_of_pericenter": 309.5588,
        "meta_mean_anomaly": 50.5313,
        "meta_ephemeris_type": 0,
        "meta_classification_type": "U",
        "meta_norad_cat_id": 58702,
        "meta_element_set_no": 999,
        "meta_rev_at_epoch": 10702,
        "meta_bstar": 0.00044004165,
        "meta_mean_motion_dot": 0.00010732,
        "meta_mean_motion_ddot": 0,
        "tle_line1": "1 58702U 24004C   25344.65556205  .00010732  00000+0  44004-3 0  9991",
        "tle_line2": "2 58702  97.4605 165.9328 0003799 309.5588  50.5313 15.24431785107022"
      },
      "geometry": {
        "type": "Point",
        "coordinates": [
          -172.79529223147057,
          -69.93396261673507
        ]
      }
    },
    {
      "type": "Feature",
      "properties": {
        "norad_id": 58703,
        "name": "TIANMU-1 18",
        "group": "weather",
        "lat": 20.08157843854101,
        "lon": 163.6296592845197,
        "alt_km": 491.95352677879237,
        "timestamp": "2025-12-10T21:43:21.729854+00:00",
        "meta_object_name": "TIANMU-1 18",
        "meta_object_id": "2024-004D",
        "meta_epoch": "2025-12-10T15:19:57.433152",
        "meta_mean_motion": 15.24420206,
        "meta_eccentricity": 0.00031344,
        "meta_inclination": 97.4622,
        "meta_ra_of_asc_node": 166.1111,
        "meta_arg_of_pericenter": 310.4408,
        "meta_mean_anomaly": 49.6556,
        "meta_ephemeris_type": 0,
        "meta_classification_type": "U",
        "meta_norad_cat_id": 58703,
        "meta_element_set_no": 999,
        "meta_rev_at_epoch": 10702,
        "meta_bstar": 0.00041085046,
        "meta_mean_motion_dot": 0.0001001,
        "meta_mean_motion_ddot": 0,
        "tle_line1": "1 58703U 24004D   25344.63885918  .00010010  00000+0  41085-3 0  9991",
        "tle_line2": "2 58703  97.4622 166.1111 0003134 310.4408  49.6556 15.24420206107024"
      },
      "geometry": {
        "type": "Point",
        "coordinates": [
          163.6296592845197,
          20.08157843854101
        ]
      }
    },
    {
      "type": "Feature",
      "properties": {
        "norad_id": 58990,
        "name": "INSAT-3DS",
        "group": "weather",
        "lat": 0.018449874631924743,
        "lon": 127.767997075983,
        "alt_km": 35791.747242495156,
        "timestamp": "2025-12-10T21:43:21.729865+00:00",
        "meta_object_name": "INSAT-3DS",
        "meta_object_id": "2024-033A",
        "meta_epoch": "2025-12-10T13:45:05.426208",
        "meta_mean_motion": 1.00269606,
        "meta_eccentricity": 0.0001592,
        "meta_inclination": 0.034,
        "meta_ra_of_asc_node": 124.782,
        "meta_arg_of_pericenter": 141.4662,
        "meta_mean_anomaly": 101.6427,
        "meta_ephemeris_type": 0,
        "meta_classification_type": "U",
        "meta_norad_cat_id": 58990,
        "meta_element_set_no": 999,
        "meta_rev_at_epoch": 4517,
        "meta_bstar": 0,
        "meta_mean_motion_dot": -1.51e-06,
        "meta_mean_motion_ddot": 0,
        "tle_line1": "1 58990U 24033A   25344.57297947 -.00000151  00000+0  00000+0 0  9997",
        "tle_line2": "2 58990   0.0340 124.7820 0001592 141.4662 101.6427  1.00269606 45173"
      },
      "geometry": {
        "type": "Point",
        "coordinates": [
          127.767997075983,
          0.018449874631924743
        ]
      }
    },
    {
      "type": "Feature",
      "properties": {
        "norad_id": 59051,
        "name": "METEOR-M2 4",
        "group": "weather",
        "lat": 31.531541362926216,
        "lon": 127.21852786702438,
        "alt_km": 819.5909639975125,
        "timestamp": "2025-12-10T21:43:21.729876+00:00",
        "meta_object_name": "METEOR-M2 4",
        "meta_object_id": "2024-039A",
        "meta_epoch": "2025-12-10T14:16:35.930784",
        "meta_mean_motion": 14.22400745,
        "meta_eccentricity": 0.00071564,
        "meta_inclination": 98.6763,
        "meta_ra_of_asc_node": 301.5374,
        "meta_arg_of_pericenter": 4.6741,
        "meta_mean_anomaly": 355.4503,
        "meta_ephemeris_type": 0,
        "meta_classification_type": "U",
        "meta_norad_cat_id": 59051,
        "meta_element_set_no": 999,
        "meta_rev_at_epoch": 9245,
        "meta_bstar": 5.8895741e-05,
        "meta_mean_motion_dot": 8.8e-07,
        "meta_mean_motion_ddot": 0,
        "tle_line1": "1 59051U 24039A   25344.59486031  .00000088  00000+0  58896-4 0  9997",
        "tle_line2": "2 59051  98.6763 301.5374 0007156   4.6741 355.4503 14.22400745 92459"
      },
      "geometry": {
        "type": "Point",
        "coordinates": [
          127.21852786702438,
          31.531541362926216
        ]
      }
    },
    {
      "type": "Feature",
      "properties": {
        "norad_id": 60133,
        "name": "GOES 19",
        "group": "weather",
        "lat": 0.0010655703153691811,
        "lon": -29.465720457852974,
        "alt_km": 35781.04785318624,
        "timestamp": "2025-12-10T21:43:21.729889+00:00",
        "meta_object_name": "GOES 19",
        "meta_object_id": "2024-119A",
        "meta_epoch": "2025-12-10T07:51:04.495968",
        "meta_mean_motion": 1.00271256,
        "meta_eccentricity": 0.00013501,
        "meta_inclination": 0.0012,
        "meta_ra_of_asc_node": 239.7895,
        "meta_arg_of_pericenter": 67.9696,
        "meta_mean_anomaly": 174.1323,
        "meta_ephemeris_type": 0,
        "meta_classification_type": "U",
        "meta_norad_cat_id": 60133,
        "meta_element_set_no": 999,
        "meta_rev_at_epoch": 507,
        "meta_bstar": 0,
        "meta_mean_motion_dot": -2.45e-06,
        "meta_mean_motion_ddot": 0,
        "tle_line1": "1 60133U 24119A   25344.32713537 -.00000245  00000+0  00000+0 0  9999",
        "tle_line2": "2 60133   0.0012 239.7895 0001350  67.9696 174.1323  1.00271256  5070"
      },
      "geometry": {
        "type": "Point",
        "coordinates": [
          -29.465720457852974,
          0.0010655703153691811
        ]
      }
    },
    {
      "type": "Feature",
      "properties": {
        "norad_id": 65815,
        "name": "FENGYUN 3H",
        "group": "weather",
        "lat": 42.596803088431685,
        "lon": -83.51820249084018,
        "alt_km": 821.8171642127654,
        "timestamp": "2025-12-10T21:43:21.729900+00:00",
        "meta_object_name": "FENGYUN 3H",
        "meta_object_id": "2025-219A",
        "meta_epoch": "2025-12-10T13:03:49.900320",
        "meta_mean_motion": 14.19903779,
        "meta_eccentricity": 6.015e-05,
        "meta_inclination": 98.6582,
        "meta_ra_of_asc_node": 284.1824,
        "meta_arg_of_pericenter": 87.6391,
        "meta_mean_anomaly": 272.4855,
        "meta_ephemeris_type": 0,
        "meta_classification_type": "U",
        "meta_norad_cat_id": 65815,
        "meta_element_set_no": 999,
        "meta_rev_at_epoch": 1061,
        "meta_bstar": 0.00010738136,
        "meta_mean_motion_dot": 1.85e-06,
        "meta_mean_motion_ddot": 0,
        "tle_line1": "1 65815U 25219A   25344.54432755  .00000185  00000+0  10738-3 0  9992",
        "tle_line2": "2 65815  98.6582 284.1824 0000601  87.6391 272.4855 14.19903779 10616"
      },
      "geometry": {
        "type": "Point",
        "coordinates": [
          -83.51820249084018,
          42.596803088431685
        ]
      }
    }
  ]
}